STARLINK-30865
1 58226U 23170W   26061.16668981  .01913816  00000+0  79968-1 0  9994
2 58226  42.9993 225.1451 0001064 306.1710  99.5158 15.19522314  5768
STARLINK-31151
1 58742U 24005Q   26061.16668981  .00995042  00000+0  42236-1 0  9993
2 58742  42.9999 261.9144 0001557 287.0685 194.9880 15.19520215  5613
